{
  "norad_id": 66643,
  "name": "STARLINK-35918",
  "history": [
    {
      "epoch": "2026-03-28T14:27:05.797152Z",
      "apogee_km": 476.1689930452467,
      "perigee_km": 474.1842734170641,
      "latitude_deg": 5.1508331389164125e-05,
      "longitude_deg": 9.188241218394344,
      "height_km": 476.13596432068323,
      "semi_major_axis_km": 6853.313633231155,
      "eccentricity": 0.0001448,
      "inclination_deg": 53.1606,
      "raan_deg": 51.9826,
      "arg_perigee_deg": 93.5495,
      "mean_anomaly_deg": 266.5672,
      "mean_motion_rev_day": 15.30212873
    },
    {
      "epoch": "2026-03-29T04:33:34.317792Z",
      "apogee_km": 475.99257661506454,
      "perigee_km": 474.3217434988428,
      "latitude_deg": -1.957446955887016e-05,
      "longitude_deg": 154.26056041522506,
      "height_km": 476.0961226786315,
      "semi_major_axis_km": 6853.294160056954,
      "eccentricity": 0.0001219,
      "inclination_deg": 53.1588,
      "raan_deg": 49.2532,
      "arg_perigee_deg": 92.8086,
      "mean_anomaly_deg": 267.3054,
      "mean_motion_rev_day": 15.30219395
    },
    {
      "epoch": "2026-03-30T04:04:22.359936Z",
      "apogee_km": 475.96528322307495,
      "perigee_km": 474.446582429161,
      "latitude_deg": -2.94442354793863e-05,
      "longitude_deg": 156.0428193019659,
      "height_km": 475.9610429677885,
      "semi_major_axis_km": 6853.342932826117,
      "eccentricity": 0.0001108,
      "inclination_deg": 53.1592,
      "raan_deg": 44.7013,
      "arg_perigee_deg": 79.135,
      "mean_anomaly_deg": 280.9775,
      "mean_motion_rev_day": 15.3020306
    },
    {
      "epoch": "2026-03-30T05:38:25.715904Z",
      "apogee_km": 476.0485756914786,
      "perigee_km": 474.4298082349369,
      "latitude_deg": 4.0971653872056656e-05,
      "longitude_deg": 132.16150964336043,
      "height_km": 476.0164888300337,
      "semi_major_axis_km": 6853.376191963208,
      "eccentricity": 0.0001181,
      "inclination_deg": 53.1592,
      "raan_deg": 44.3983,
      "arg_perigee_deg": 81.4148,
      "mean_anomaly_deg": 278.6987,
      "mean_motion_rev_day": 15.30191921
    },
    {
      "epoch": "2026-03-30T05:38:25.716768Z",
      "apogee_km": 476.04878129276403,
      "perigee_km": 474.4296026336515,
      "latitude_deg": 3.826377399885782e-05,
      "longitude_deg": 132.16150401593097,
      "height_km": 476.01645813400637,
      "semi_major_axis_km": 6853.376191963208,
      "eccentricity": 0.00011813,
      "inclination_deg": 53.1592,
      "raan_deg": 44.3983,
      "arg_perigee_deg": 81.4148,
      "mean_anomaly_deg": 278.6987,
      "mean_motion_rev_day": 15.30191921
    },
    {
      "epoch": "2026-03-31T06:43:18.493824Z",
      "apogee_km": 476.1959352053127,
      "perigee_km": 474.2797316018941,
      "latitude_deg": -3.5334714787621037e-06,
      "longitude_deg": 110.05881625474389,
      "height_km": 475.4542001270461,
      "semi_major_axis_km": 6853.374833403604,
      "eccentricity": 0.0001398,
      "inclination_deg": 53.1591,
      "raan_deg": 39.5456,
      "arg_perigee_deg": 44.6155,
      "mean_anomaly_deg": 315.4958,
      "mean_motion_rev_day": 15.30192376
    },
    {
      "epoch": "2026-04-01T03:05:59.112960Z",
      "apogee_km": 475.93263593701795,
      "perigee_km": 474.30827685470285,
      "latitude_deg": 1.5966528810583273e-05,
      "longitude_deg": 159.60739289422034,
      "height_km": 475.8905948087325,
      "semi_major_axis_km": 6853.25745639586,
      "eccentricity": 0.00011851,
      "inclination_deg": 53.1598,
      "raan_deg": 35.6003,
      "arg_perigee_deg": 80.9278,
      "mean_anomaly_deg": 279.1857,
      "mean_motion_rev_day": 15.30231688
    },
    {
      "epoch": "2026-04-02T19:51:21.929760Z",
      "apogee_km": 475.9122089143839,
      "perigee_km": 474.43326467318457,
      "latitude_deg": 5.539040147883698e-05,
      "longitude_deg": -101.29774940901586,
      "height_km": 476.047326465744,
      "semi_major_axis_km": 6853.309736793784,
      "eccentricity": 0.0001079,
      "inclination_deg": 53.1609,
      "raan_deg": 27.714,
      "arg_perigee_deg": 88.1525,
      "mean_anomaly_deg": 271.96,
      "mean_motion_rev_day": 15.30214178
    },
    {
      "epoch": "2026-04-02T22:59:28.066272Z",
      "apogee_km": 476.0076475892356,
      "perigee_km": 474.2344356035528,
      "latitude_deg": -3.378070075314018e-05,
      "longitude_deg": -149.05963598413658,
      "height_km": 476.2817229442688,
      "semi_major_axis_km": 6853.258041596394,
      "eccentricity": 0.00012937,
      "inclination_deg": 53.161,
      "raan_deg": 27.1065,
      "arg_perigee_deg": 107.2178,
      "mean_anomaly_deg": 252.8964,
      "mean_motion_rev_day": 15.30231492
    },
    {
      "epoch": "2026-04-03T06:49:43.574304Z",
      "apogee_km": 475.98607735276073,
      "perigee_km": 474.19464372071707,
      "latitude_deg": -3.407715263635563e-05,
      "longitude_deg": 91.53696651905469,
      "height_km": 476.0210035529562,
      "semi_major_axis_km": 6853.227360536739,
      "eccentricity": 0.0001307,
      "inclination_deg": 53.1603,
      "raan_deg": 25.5896,
      "arg_perigee_deg": 92.0835,
      "mean_anomaly_deg": 268.0315,
      "mean_motion_rev_day": 15.30241768
    },
    {
      "epoch": "2026-04-07T11:09:08.606016Z",
      "apogee_km": 475.9906026442495,
      "perigee_km": 474.3473169412109,
      "latitude_deg": -5.1515781561152043e-05,
      "longitude_deg": 3.147203421278224,
      "height_km": 475.7397104768557,
      "semi_major_axis_km": 6853.30595979273,
      "eccentricity": 0.00011989,
      "inclination_deg": 53.1609,
      "raan_deg": 6.1743,
      "arg_perigee_deg": 66.4967,
      "mean_anomaly_deg": 293.6159,
      "mean_motion_rev_day": 15.30215443
    },
    {
      "epoch": "2026-04-09T08:36:41.554656Z",
      "apogee_km": 476.10896452205907,
      "perigee_km": 474.3325741882427,
      "latitude_deg": 3.906884716203341e-05,
      "longitude_deg": 30.595838157875242,
      "height_km": 475.98559136142876,
      "semi_major_axis_km": 6853.357769355151,
      "eccentricity": 0.0001296,
      "inclination_deg": 53.16,
      "raan_deg": 357.3771,
      "arg_perigee_deg": 81.3728,
      "mean_anomaly_deg": 278.742,
      "mean_motion_rev_day": 15.30198091
    },
    {
      "epoch": "2026-04-10T09:41:32.396352Z",
      "apogee_km": 475.98376519291105,
      "perigee_km": 474.3937936120901,
      "latitude_deg": -3.3266510350602575e-05,
      "longitude_deg": 8.499409617751231,
      "height_km": 476.04124387916386,
      "semi_major_axis_km": 6853.3257794025,
      "eccentricity": 0.000116,
      "inclination_deg": 53.1596,
      "raan_deg": 352.5226,
      "arg_perigee_deg": 86.7024,
      "mean_anomaly_deg": 273.4109,
      "mean_motion_rev_day": 15.30208805
    },
    {
      "epoch": "2026-04-11T09:12:20.613888Z",
      "apogee_km": 475.97066963389534,
      "perigee_km": 474.5122706954453,
      "latitude_deg": -4.468966585120231e-05,
      "longitude_deg": 10.284531918667012,
      "height_km": 476.1664444138927,
      "semi_major_axis_km": 6853.37847016467,
      "eccentricity": 0.0001064,
      "inclination_deg": 53.1591,
      "raan_deg": 347.9743,
      "arg_perigee_deg": 92.0994,
      "mean_anomaly_deg": 268.0128,
      "mean_motion_rev_day": 15.30191158
    },
    {
      "epoch": "2026-04-13T01:57:43.564608Z",
      "apogee_km": 475.9550028130752,
      "perigee_km": 474.4398676361352,
      "latitude_deg": 2.662832683735546e-05,
      "longitude_deg": 109.37275078075763,
      "height_km": 475.8059399269124,
      "semi_major_axis_km": 6853.334435224605,
      "eccentricity": 0.00011054,
      "inclination_deg": 53.159,
      "raan_deg": 340.0819,
      "arg_perigee_deg": 67.5086,
      "mean_anomaly_deg": 292.6032,
      "mean_motion_rev_day": 15.30205906
    },
    {
      "epoch": "2026-04-14T20:17:09.862656Z",
      "apogee_km": 476.08451040510863,
      "perigee_km": 474.3711691951594,
      "latitude_deg": -3.31936823237311e-05,
      "longitude_deg": -175.4170509287321,
      "height_km": 475.4075958686538,
      "semi_major_axis_km": 6853.364839800134,
      "eccentricity": 0.000125,
      "inclination_deg": 53.1578,
      "raan_deg": 331.8899,
      "arg_perigee_deg": 32.9484,
      "mean_anomaly_deg": 327.1594,
      "mean_motion_rev_day": 15.30195723
    },
    {
      "epoch": "2026-04-15T19:47:57.878016Z",
      "apogee_km": 475.9635046054527,
      "perigee_km": 474.4790672007266,
      "latitude_deg": 1.3276203549303068e-05,
      "longitude_deg": -173.63113688173434,
      "height_km": 475.9588613503418,
      "semi_major_axis_km": 6853.358285903089,
      "eccentricity": 0.0001083,
      "inclination_deg": 53.1602,
      "raan_deg": 327.3415,
      "arg_perigee_deg": 77.487,
      "mean_anomaly_deg": 282.6252,
      "mean_motion_rev_day": 15.30197918
    },
    {
      "epoch": "2026-04-16T20:52:48.939168Z",
      "apogee_km": 475.936920777307,
      "perigee_km": 474.43467242029146,
      "latitude_deg": 5.0368875360050636e-05,
      "longitude_deg": 164.27150402738982,
      "height_km": 476.21682005519716,
      "semi_major_axis_km": 6853.322796598799,
      "eccentricity": 0.0001096,
      "inclination_deg": 53.1599,
      "raan_deg": 322.4869,
      "arg_perigee_deg": 100.1762,
      "mean_anomaly_deg": 259.9363,
      "mean_motion_rev_day": 15.30209804
    },
    {
      "epoch": "2026-04-17T20:23:36.909600Z",
      "apogee_km": 476.4443107813031,
      "perigee_km": 473.9270853543021,
      "latitude_deg": 3.19484774338998e-05,
      "longitude_deg": 166.0541567826347,
      "height_km": 476.3160255848969,
      "semi_major_axis_km": 6853.322698067802,
      "eccentricity": 0.00018365,
      "inclination_deg": 53.1604,
      "raan_deg": 317.9351,
      "arg_perigee_deg": 100.6669,
      "mean_anomaly_deg": 259.4539,
      "mean_motion_rev_day": 15.30209837
    }
  ]
}